[{"OBJECT_NAME":"ONEWEB-0304","OBJECT_ID":"2021-075T","EPOCH":"2026-02-21T10:35:56.522688","MEAN_MOTION":13.17647977,"ECCENTRICITY":0.00019943,"INCLINATION":87.9128,"RA_OF_ASC_NODE":28.8554,"ARG_OF_PERICENTER":80.1571,"MEAN_ANOMALY":279.9785,"EPHEMERIS_TYPE":0,"CLASSIFICATION_TYPE":"U","NORAD_CAT_ID":49092,"ELEMENT_SET_NO":999,"REV_AT_EPOCH":21833,"BSTAR":-1.8112077e-5,"MEAN_MOTION_DOT":6.0e-8,"MEAN_MOTION_DDOT":0},{"OBJECT_NAME":"ONEWEB-0305","OBJECT_ID":"2021-075U","EPOCH":"2026-02-21T10:26:13.320960","MEAN_MOTION":13.17647585,"ECCENTRICITY":0.00021714,"INCLINATION":87.913,"RA_OF_ASC_NODE":28.8352,"ARG_OF_PERICENTER":74.7728,"MEAN_ANOMALY":285.3643,"EPHEMERIS_TYPE":0,"CLASSIFICATION_TYPE":"U","NORAD_CAT_ID":49093,"ELEMENT_SET_NO":999,"REV_AT_EPOCH":21836,"BSTAR":-2.3891608e-5,"MEAN_MOTION_DOT":4.0e-8,"MEAN_MOTION_DDOT":0},{"OBJECT_NAME":"ONEWEB-0308","OBJECT_ID":"2021-075V","EPOCH":"2026-02-21T09:59:11.786496","MEAN_MOTION":13.12443973,"ECCENTRICITY":0.0001834,"INCLINATION":87.8984,"RA_OF_ASC_NODE":13.6315,"ARG_OF_PERICENTER":82.3834,"MEAN_ANOMALY":277.7503,"EPHEMERIS_TYPE":0,"CLASSIFICATION_TYPE":"U","NORAD_CAT_ID":49094,"ELEMENT_SET_NO":999,"REV_AT_EPOCH":21937,"BSTAR":0.001280457,"MEAN_MOTION_DOT":4.73e-6,"MEAN_MOTION_DDOT":0},{"OBJECT_NAME":"ONEWEB-0309","OBJECT_ID":"2021-075W","EPOCH":"2026-02-21T10:31:05.440224","MEAN_MOTION":13.17648068,"ECCENTRICITY":0.00022688,"INCLINATION":87.9129,"RA_OF_ASC_NODE":28.8491,"ARG_OF_PERICENTER":89.823,"MEAN_ANOMALY":270.3161,"EPHEMERIS_TYPE":0,"CLASSIFICATION_TYPE":"U","NORAD_CAT_ID":49095,"ELEMENT_SET_NO":999,"REV_AT_EPOCH":21833,"BSTAR":0.00011264866,"MEAN_MOTION_DOT":5.7e-7,"MEAN_MOTION_DDOT":0},{"OBJECT_NAME":"ONEWEB-0310","OBJECT_ID":"2021-075X","EPOCH":"2026-02-21T10:21:09.871200","MEAN_MOTION":13.12441985,"ECCENTRICITY":0.00018514,"INCLINATION":87.8975,"RA_OF_ASC_NODE":13.6602,"ARG_OF_PERICENTER":81.5245,"MEAN_ANOMALY":278.6093,"EPHEMERIS_TYPE":0,"CLASSIFICATION_TYPE":"U","NORAD_CAT_ID":49096,"ELEMENT_SET_NO":999,"REV_AT_EPOCH":22000,"BSTAR":0.00031221574,"MEAN_MOTION_DOT":1.25e-6,"MEAN_MOTION_DDOT":0},{"OBJECT_NAME":"ONEWEB-0311","OBJECT_ID":"2021-075Y","EPOCH":"2026-02-21T10:40:48.507168","MEAN_MOTION":13.17647991,"ECCENTRICITY":0.00020234,"INCLINATION":87.9129,"RA_OF_ASC_NODE":28.8429,"ARG_OF_PERICENTER":73.7589,"MEAN_ANOMALY":286.3765,"EPHEMERIS_TYPE":0,"CLASSIFICATION_TYPE":"U","NORAD_CAT_ID":49097,"ELEMENT_SET_NO":999,"REV_AT_EPOCH":21838,"BSTAR":1.1311932e-5,"MEAN_MOTION_DOT":1.7e-7,"MEAN_MOTION_DDOT":0},{"OBJECT_NAME":"ONEWEB-0312","OBJECT_ID":"2021-075Z","EPOCH":"2026-02-21T11:02:40.347744","MEAN_MOTION":13.17648631,"ECCENTRICITY":0.00022213,"INCLINATION":87.9122,"RA_OF_ASC_NODE":28.8589,"ARG_OF_PERICENTER":80.4906,"MEAN_ANOMALY":279.6477,"EPHEMERIS_TYPE":0,"CLASSIFICATION_TYPE":"U","NORAD_CAT_ID":49098,"ELEMENT_SET_NO":999,"REV_AT_EPOCH":21836,"BSTAR":0.00011088955,"MEAN_MOTION_DOT":5.6e-7,"MEAN_MOTION_DDOT":0},{"OBJECT_NAME":"ONEWEB-0313","OBJECT_ID":"2021-075AA","EPOCH":"2026-02-21T11:09:46.107072","MEAN_MOTION":13.17648497,"ECCENTRICITY":0.00019753,"INCLINATION":87.9118,"RA_OF_ASC_NODE":28.865,"ARG_OF_PERICENTER":84.157,"MEAN_ANOMALY":275.9787,"EPHEMERIS_TYPE":0,"CLASSIFICATION_TYPE":"U","NORAD_CAT_ID":49099,"ELEMENT_SET_NO":999,"REV_AT_EPOCH":21835,"BSTAR":7.730856e-6,"MEAN_MOTION_DOT":1.6e-7,"MEAN_MOTION_DDOT":0},{"OBJECT_NAME":"ONEWEB-0314","OBJECT_ID":"2021-075AB","EPOCH":"2026-02-21T10:21:21.796128","MEAN_MOTION":13.17648654,"ECCENTRICITY":0.00022472,"INCLINATION":87.9126,"RA_OF_ASC_NODE":28.8327,"ARG_OF_PERICENTER":78.8055,"MEAN_ANOMALY":281.3329,"EPHEMERIS_TYPE":0,"CLASSIFICATION_TYPE":"U","NORAD_CAT_ID":49100,"ELEMENT_SET_NO":999,"REV_AT_EPOCH":21832,"BSTAR":7.0545879e-5,"MEAN_MOTION_DOT":4.0e-7,"MEAN_MOTION_DDOT":0},{"OBJECT_NAME":"ONEWEB-0315","OBJECT_ID":"2021-075AC","EPOCH":"2026-02-21T09:42:07.110144","MEAN_MOTION":13.12445367,"ECCENTRICITY":0.00018602,"INCLINATION":87.8983,"RA_OF_ASC_NODE":13.6209,"ARG_OF_PERICENTER":69.1209,"MEAN_ANOMALY":291.0118,"EPHEMERIS_TYPE":0,"CLASSIFICATION_TYPE":"U","NORAD_CAT_ID":49101,"ELEMENT_SET_NO":999,"REV_AT_EPOCH":21998,"BSTAR":0.00090532207,"MEAN_MOTION_DOT":3.38e-6,"MEAN_MOTION_DDOT":0},{"OBJECT_NAME":"ONEWEB-0316","OBJECT_ID":"2021-075AD","EPOCH":"2026-02-21T07:05:27.430368","MEAN_MOTION":13.18687874,"ECCENTRICITY":0.0001839,"INCLINATION":87.9229,"RA_OF_ASC_NODE":358.4738,"ARG_OF_PERICENTER":77.2933,"MEAN_ANOMALY":282.8405,"EPHEMERIS_TYPE":0,"CLASSIFICATION_TYPE":"U","NORAD_CAT_ID":49102,"ELEMENT_SET_NO":999,"REV_AT_EPOCH":22193,"BSTAR":0.00013861,"MEAN_MOTION_DOT":6.8e-7,"MEAN_MOTION_DDOT":0},{"OBJECT_NAME":"ONEWEB-0317","OBJECT_ID":"2021-075AE","EPOCH":"2026-02-21T09:47:00.491712","MEAN_MOTION":13.12444048,"ECCENTRICITY":0.0002077,"INCLINATION":87.8985,"RA_OF_ASC_NODE":13.6418,"ARG_OF_PERICENTER":103.4026,"MEAN_ANOMALY":256.7334,"EPHEMERIS_TYPE":0,"CLASSIFICATION_TYPE":"U","NORAD_CAT_ID":49103,"ELEMENT_SET_NO":999,"REV_AT_EPOCH":22000,"BSTAR":0.0011376543,"MEAN_MOTION_DOT":4.22e-6,"MEAN_MOTION_DDOT":0},{"OBJECT_NAME":"ONEWEB-0318","OBJECT_ID":"2021-075AF","EPOCH":"2026-02-21T07:00:43.613280","MEAN_MOTION":13.1868511,"ECCENTRICITY":0.0001894,"INCLINATION":87.924,"RA_OF_ASC_NODE":358.4654,"ARG_OF_PERICENTER":72.2992,"MEAN_ANOMALY":287.8346,"EPHEMERIS_TYPE":0,"CLASSIFICATION_TYPE":"U","NORAD_CAT_ID":49104,"ELEMENT_SET_NO":999,"REV_AT_EPOCH":22189,"BSTAR":3.9932e-5,"MEAN_MOTION_DOT":2.9e-7,"MEAN_MOTION_DDOT":0},{"OBJECT_NAME":"ONEWEB-0319","OBJECT_ID":"2021-075AG","EPOCH":"2026-02-21T10:43:14.097216","MEAN_MOTION":13.17647659,"ECCENTRICITY":0.00019329,"INCLINATION":87.9119,"RA_OF_ASC_NODE":28.856,"ARG_OF_PERICENTER":67.6946,"MEAN_ANOMALY":292.4391,"EPHEMERIS_TYPE":0,"CLASSIFICATION_TYPE":"U","NORAD_CAT_ID":49105,"ELEMENT_SET_NO":999,"REV_AT_EPOCH":21836,"BSTAR":5.8023696e-5,"MEAN_MOTION_DOT":3.5e-7,"MEAN_MOTION_DDOT":0},{"OBJECT_NAME":"ONEWEB-0323","OBJECT_ID":"2021-075AH","EPOCH":"2026-02-21T09:20:09.173184","MEAN_MOTION":13.1244474,"ECCENTRICITY":0.0002229,"INCLINATION":87.898,"RA_OF_ASC_NODE":13.6281,"ARG_OF_PERICENTER":63.8919,"MEAN_ANOMALY":296.2439,"EPHEMERIS_TYPE":0,"CLASSIFICATION_TYPE":"U","NORAD_CAT_ID":49106,"ELEMENT_SET_NO":999,"REV_AT_EPOCH":21936,"BSTAR":-0.00044245404,"MEAN_MOTION_DOT":-1.46e-6,"MEAN_MOTION_DDOT":0},{"OBJECT_NAME":"ONEWEB-0329","OBJECT_ID":"2021-075AJ","EPOCH":"2026-02-21T10:55:22.395648","MEAN_MOTION":13.17648817,"ECCENTRICITY":0.00020348,"INCLINATION":87.9117,"RA_OF_ASC_NODE":28.8547,"ARG_OF_PERICENTER":81.399,"MEAN_ANOMALY":278.7372,"EPHEMERIS_TYPE":0,"CLASSIFICATION_TYPE":"U","NORAD_CAT_ID":49107,"ELEMENT_SET_NO":999,"REV_AT_EPOCH":21834,"BSTAR":0.00025666753,"MEAN_MOTION_DOT":1.13e-6,"MEAN_MOTION_DDOT":0},{"OBJECT_NAME":"ONEWEB-0330","OBJECT_ID":"2021-075AK","EPOCH":"2026-02-21T10:56:35.721600","MEAN_MOTION":13.17647788,"ECCENTRICITY":0.00021452,"INCLINATION":87.912,"RA_OF_ASC_NODE":28.8625,"ARG_OF_PERICENTER":85.0221,"MEAN_ANOMALY":275.1156,"EPHEMERIS_TYPE":0,"CLASSIFICATION_TYPE":"U","NORAD_CAT_ID":49108,"ELEMENT_SET_NO":999,"REV_AT_EPOCH":21838,"BSTAR":8.2468038e-5,"MEAN_MOTION_DOT":4.5e-7,"MEAN_MOTION_DDOT":0}]
