ONEWEB-0304             
1 49092U 21075T   26052.44162642  .00000006  00000+0 -18112-4 0  9996
2 49092  87.9128  28.8554 0001994  80.1571 279.9785 13.17647977218334
ONEWEB-0305             
1 49093U 21075U   26052.43487640  .00000004  00000+0 -23892-4 0  9993
2 49093  87.9130  28.8352 0002171  74.7728 285.3643 13.17647585218367
ONEWEB-0308             
1 49094U 21075V   26052.41610864  .00000473  00000+0  12805-2 0  9997
2 49094  87.8984  13.6315 0001834  82.3834 277.7503 13.12443973219375
ONEWEB-0309             
1 49095U 21075W   26052.43825741  .00000057  00000+0  11265-3 0  9990
2 49095  87.9129  28.8491 0002268  89.8230 270.3161 13.17648068218336
ONEWEB-0310             
1 49096U 21075X   26052.43136425  .00000125  00000+0  31222-3 0  9996
2 49096  87.8975  13.6602 0001851  81.5245 278.6093 13.12441985220009
ONEWEB-0311             
1 49097U 21075Y   26052.44500587  .00000017  00000+0  11312-4 0  9991
2 49097  87.9129  28.8429 0002023  73.7589 286.3765 13.17647991218383
ONEWEB-0312             
1 49098U 21075Z   26052.46018921  .00000056  00000+0  11089-3 0  9993
2 49098  87.9122  28.8589 0002221  80.4906 279.6477 13.17648631218367
ONEWEB-0313             
1 49099U 21075AA  26052.46511698  .00000016  00000+0  77309-5 0  9998
2 49099  87.9118  28.8650 0001975  84.1570 275.9787 13.17648497218357
ONEWEB-0314             
1 49100U 21075AB  26052.43150227  .00000040  00000+0  70546-4 0  9997
2 49100  87.9126  28.8327 0002247  78.8055 281.3329 13.17648654218326
ONEWEB-0315             
1 49101U 21075AC  26052.40424896  .00000338  00000+0  90532-3 0  9997
2 49101  87.8983  13.6209 0001860  69.1209 291.0118 13.12445367219980
ONEWEB-0316             
1 49102U 21075AD  26052.29545637  .00000068  00000+0  13861-3 0  9992
2 49102  87.9229 358.4738 0001839  77.2933 282.8405 13.18687874221934
ONEWEB-0317             
1 49103U 21075AE  26052.40764458  .00000422  00000+0  11377-2 0  9993
2 49103  87.8985  13.6418 0002077 103.4026 256.7334 13.12444048220004
ONEWEB-0318             
1 49104U 21075AF  26052.29217145  .00000029  00000+0  39932-4 0  9999
2 49104  87.9240 358.4654 0001894  72.2992 287.8346 13.18685110221892
ONEWEB-0319             
1 49105U 21075AG  26052.44669094  .00000035  00000+0  58024-4 0  9991
2 49105  87.9119  28.8560 0001932  67.6946 292.4391 13.17647659218367
ONEWEB-0323             
1 49106U 21075AH  26052.38899506 -.00000146  00000+0 -44245-3 0  9992
2 49106  87.8980  13.6281 0002229  63.8919 296.2439 13.12444740219360
ONEWEB-0329             
1 49107U 21075AJ  26052.45512032  .00000113  00000+0  25667-3 0  9996
2 49107  87.9117  28.8547 0002034  81.3990 278.7372 13.17648817218349
ONEWEB-0330             
1 49108U 21075AK  26052.45596900  .00000045  00000+0  82468-4 0  9990
2 49108  87.9120  28.8625 0002145  85.0221 275.1156 13.17647788218383
